{"fetched_at":"2026-03-29T16:36:15Z","count":15609,"tles":[{"name":"STARLINK-34611","line1":"1 64918U 25157Q   26087.85248540  .00022663  00000+0  77472-3 0  9995","line2":"2 64918  53.1583 256.9481 0001026  83.5105 276.6013 15.30209450 39052","category":"Starlink"}]}